BEESAT-4                
1 41619U 16040W   22107.88939810  .00012925  00000+0  45718-3 0  9996
2 41619  97.2238 160.1915 0008614 340.5110  19.5800 15.29255024311463
CAS-2T & KS-1Q          
1 41847U 16066G   22107.76122520  .00000859  00000+0  13812-3 0  9999
2 41847  98.5561 172.4803 0364756  31.5695 330.6824 14.38493422285624
NAYIF-1 (EO-88)         
1 42017U 17008BX  22107.62299825  .00014355  00000+0  45982-3 0  9993
2 42017  97.2743 174.6951 0006782 107.4435 252.7549 15.32458265287752
ZHUHAI-1 02 (CAS-4B)    
1 42759U 17034B   22107.92867448  .00003997  00000+0  24542-3 0  9999
2 42759  43.0187 306.1906 0009811 271.4459 227.1301 15.11378684267193
ZHUHAI-1 01 (CAS-4A)    
1 42761U 17034D   22107.81318706  .00003998  00000+0  24486-3 0  9996
2 42761  43.0181 305.6594 0010253 271.3550 103.2198 15.11465265267189
MAX VALIER SAT          
1 42778U 17036P   22107.68616063  .00007059  00000+0  27812-3 0  9996
2 42778  97.2127 150.8976 0011755 172.3779 187.7641 15.25831437267636
RADFXSAT (FOX-1B)       
1 43017U 17073E   22107.70771619  .00005522  00000+0  41813-3 0  9996
2 43017  97.6821   4.3772 0251332  27.0531 334.3526 14.80854159238124
FOX-1D (AO-92)          
1 43137U 18004AC  22107.74623130  .00009371  00000+0  34501-3 0  9994
2 43137  97.3718 183.4981 0007586 207.1295 152.9549 15.28038164237073
DIWATA-2B               
1 43678U 18084H   22107.89409797  .00000851  00000+0  89546-4 0  9993
2 43678  97.9593 240.4905 0011044 121.3185 238.9097 14.92039729188828
ES'HAIL 2               
1 43700U 18090A   22107.87639594  .00000148  00000+0  00000+0 0  9996
2 43700   0.0246 118.2666 0002661 301.0926 127.9185  1.00273189 12427
FOX-1CLIFF (AO-95)      
1 43770U 18099N   22107.73469465  .00003268  00000+0  29513-3 0  9995
2 43770  97.6252 175.6617 0015960 117.4647 242.8200 14.96074985183933
ITASAT 1                
1 43786U 18099AE  22107.86859636  .00002809  00000+0  25306-3 0  9995
2 43786  97.6275 176.6757 0016662 110.6585 249.6425 14.96271291183996
JY1SAT (JO-97)          
1 43803U 18099AX  22107.77110408  .00002425  00000+0  21693-3 0  9991
2 43803  97.6234 176.3235 0015976 110.3862 249.9078 14.96681765183999
UWE-4                   
1 43880U 18111E   22107.68049056  .00003210  00000+0  27825-3 0  9997
2 43880  97.6718  15.0570 0012801 157.1060 203.0736 14.97736853180602
NEXUS (FO-99)           
1 43937U 19003F   22107.60387567  .00010681  00000+0  37831-3 0  9993
2 43937  97.1372 143.3666 0021317  16.9397 343.2551 15.29071235180675
PSAT2 (NO-104)          
1 44354U 19036R   22107.70459825  .00047985 -55254-5  48303-3 0  9992
2 44354  28.5270 236.9792 0257372  10.2484 350.3237 15.31985231155337
BRICSAT2 (NO-103)       
1 44355U 19036S   22107.29055629  .01894630 -73372-5  14139-2 0  9999
2 44355  28.5126 105.7869 0043616 219.9372 139.8033 16.11865479156597
JAISAT-1                
1 44419U 19038F   22107.87708668  .00008899  00000+0  46190-3 0  9991
2 44419  97.6316  77.5799 0019139 348.0212  12.0562 15.16208335153877
DUCHIFAT-3              
1 44854U 19089C   22107.69928543  .00003626  00000+0  28782-3 0  9996
2 44854  36.9654 100.3903 0006801  83.7606 276.3914 15.00570765128808
CAS-6 (TO-108)          
1 44881U 19093C   22107.86752711  .00000645  00000+0  88611-4 0  9998
2 44881  97.8942 187.9443 0015697  28.5452 331.6608 14.81642431125803
RS-44 & BREEZE-KM R/B   
1 44909U 19096E   22107.91318259  .00000008  00000+0 -18920-4 0  9993
2 44909  82.5175 270.4960 0218417 101.2725 261.3006 12.79713207107763
ORBITAL FACTORY 2 (OF-2)
1 45113U 19071C   22107.71690984  .00022049  00000+0  51313-3 0  9990
2 45113  51.6402 357.5146 0008409 313.0998  46.9284 15.42186467123990
HUSKYSAT-1 (HO-107)     
1 45119U 19071J   22107.88786700  .00020845  00000+0  49470-3 0  9999
2 45119  51.6409 356.3867 0008266 310.0361  49.9899 15.41634470124012
BY70-2                  
1 45857U 20042B   22107.89057633  .00007057  00000+0  96391-3 0  9999
2 45857  97.9567 185.3488 0008966 315.9359  44.1091 14.78872723 96503
SALSAT                  
1 46495U 20068K   22107.83400272  .00002427  00000+0  17873-3 0  9995
2 46495  97.7267  49.1486 0018330 119.6885 240.6168 15.04178726 85071
BY70-3                  
1 46839U 20079N   22107.83787300  .00022697  00000+0  58556-3 0  9993
2 46839  97.2025 180.8346 0006799 179.7470 245.8703 15.39151262 80915
RADFXSAT-2 (AO-109)     
1 47311U 21002C   22107.68063047  .00009004  00000+0  37728-3 0  9999
2 47311  60.6865 230.8310 0011524 246.1685 113.8195 15.24158447 69195
UVSQ-SAT                
1 47438U 21006AB  22107.72580123  .00005837  00000+0  31672-3 0  9999
2 47438  97.4429 167.9987 0013630 123.7998 236.4534 15.14852139 68080
DIY-1 (ARDUIQUBE)       
1 47963U 21022AH  22107.67953531  .00015500  00000+0  91830-3 0  9991
2 47963  97.5377   9.8201 0017271 350.0739  10.0147 15.11358541 57766
XW-3 (CAS-9)            
1 50466U 21131B   22107.93524036  .00000181  00000+0  73961-4 0  9992
2 50466  98.5822 185.2140 0003723 344.1469  15.9601 14.38466852 16213
